{
    "links": {
        "self": "http://www.neowsapp.com/rest/v1/neo/3749065?api_key=iIulBulltgU6a56xZRHN4H3l9WmuAYTsLGpBGhQ2"
    },
    "id": "3749065",
    "neo_reference_id": "3749065",
    "name": "(2016 GT2)",
    "designation": "2016 GT2",
    "nasa_jpl_url": "http://ssd.jpl.nasa.gov/sbdb.cgi?sstr=3749065",
    "absolute_magnitude_h": 25.6,
    "estimated_diameter": {
        "kilometers": {
            "estimated_diameter_min": 0.0201629919,
            "estimated_diameter_max": 0.0450858206
        },
        "meters": {
            "estimated_diameter_min": 20.1629919443,
            "estimated_diameter_max": 45.0858206172
        },
        "miles": {
            "estimated_diameter_min": 0.0125286985,
            "estimated_diameter_max": 0.0280150214
        },
        "feet": {
            "estimated_diameter_min": 66.1515504905,
            "estimated_diameter_max": 147.9193637137
        }
    },
    "is_potentially_hazardous_asteroid": false,
    "close_approach_data": [
        {
            "close_approach_date": "2014-03-17",
            "close_approach_date_full": "2014-Mar-17 21:15",
            "epoch_date_close_approach": 1395090900000,
            "relative_velocity": {
                "kilometers_per_second": "16.9303458817",
                "kilometers_per_hour": "60949.2451741088",
                "miles_per_hour": "37871.4907027678"
            },
            "miss_distance": {
                "astronomical": "0.3984741389",
                "lunar": "155.0064400321",
                "kilometers": "59610882.429524143",
                "miles": "37040484.7516054534"
            },
            "orbiting_body": "Earth"
        },
        {
            "close_approach_date": "2016-04-07",
            "close_approach_date_full": "2016-Apr-07 09:26",
            "epoch_date_close_approach": 1460021160000,
            "relative_velocity": {
                "kilometers_per_second": "10.0345750248",
                "kilometers_per_hour": "36124.4700891558",
                "miles_per_hour": "22446.3408728979"
            },
            "miss_distance": {
                "astronomical": "0.0637685335",
                "lunar": "24.8059595315",
                "kilometers": "9539636.784623645",
                "miles": "5927655.428930501"
            },
            "orbiting_body": "Earth"
        },
        {
            "close_approach_date": "2018-05-07",
            "close_approach_date_full": "2018-May-07 20:54",
            "epoch_date_close_approach": 1525726440000,
            "relative_velocity": {
                "kilometers_per_second": "13.3215617941",
                "kilometers_per_hour": "47957.62245872",
                "miles_per_hour": "29799.0015771975"
            },
            "miss_distance": {
                "astronomical": "0.3530503993",
                "lunar": "137.3366053277",
                "kilometers": "52815587.737929491",
                "miles": "32818084.4255533358"
            },
            "orbiting_body": "Earth"
        },
        {
            "close_approach_date": "2121-03-21",
            "close_approach_date_full": "2121-Mar-21 12:24",
            "epoch_date_close_approach": 4772003040000,
            "relative_velocity": {
                "kilometers_per_second": "15.9086121458",
                "kilometers_per_hour": "57271.0037250359",
                "miles_per_hour": "35585.9745090369"
            },
            "miss_distance": {
                "astronomical": "0.3530638864",
                "lunar": "137.3418518096",
                "kilometers": "52817605.379361968",
                "miles": "32819338.1298044384"
            },
            "orbiting_body": "Earth"
        }
    ],
    "orbital_data": {
        "orbit_id": "5",
        "orbit_determination_date": "2017-04-06 08:26:49",
        "first_observation_date": "2016-04-02",
        "last_observation_date": "2016-04-09",
        "data_arc_in_days": 7,
        "observations_used": 20,
        "orbit_uncertainty": "8",
        "minimum_orbit_intersection": ".0611074",
        "jupiter_tisserand_invariant": "4.220",
        "epoch_osculation": "2457481.5",
        "eccentricity": ".3470683795972178",
        "semi_major_axis": "1.61817162857199",
        "inclination": "16.28337865529463",
        "ascending_node_longitude": "16.30447895590432",
        "orbital_period": "751.8570917587413",
        "perihelion_distance": "1.056555423533318",
        "perihelion_argument": "193.1441871077102",
        "aphelion_distance": "2.179787833610661",
        "perihelion_time": "2457496.005815399929",
        "mean_anomaly": "353.0544067466878",
        "mean_motion": ".4788143969725541",
        "equinox": "J2000",
        "orbit_class": {
            "orbit_class_type": "AMO",
            "orbit_class_description": "Near-Earth asteroid orbits similar to that of 1221 Amor",
            "orbit_class_range": "1.017 AU < q (perihelion) < 1.3 AU"
        }
    },
    "is_sentry_object": false
}